[
    {
        "Altitude(m)": 617719.7218267048,
        "Argument of Periapsis(deg)": 0.0,
        "Eccentricity": 0.0,
        "Inclination(deg)": 60.0,
        "Latitude(deg)": -41.10250713782013,
        "Longitude(deg)": 70.09467286939619,
        "Mean Anomaly(deg)": -130.9091,
        "RAAN(deg)": 320.0,
        "Satellite Name": "Test1 1422",
        "Satellite Number": 1422,
        "Semi-Major Axis(m)": 6980739.136638005,
        "Time(s)": 0
    },
    {
        "Altitude(m)": 617911.2575328398,
        "Argument of Periapsis(deg)": 0.00010418945913296404,
        "Eccentricity": 0.0,
        "Inclination(deg)": 60.0,
        "Latitude(deg)": -41.56569886913792,
        "Longitude(deg)": 70.5990788107896,
        "Mean Anomaly(deg)": -130.28899385453815,
        "RAAN(deg)": 319.9995799508602,
        "Satellite Name": "Test1 1422",
        "Satellite Number": 1422,
        "Semi-Major Axis(m)": 6980739.136638005,
        "Time(s)": 10
    }
]